NAVSTAR 65 (USA 213)
1 36585U 10022A   26116.35461566 -.00000042  00000+0  00000+0 0  9999
2 36585  54.2771 210.6498 0126616  66.0747 113.7256  2.00559819116559
